ONEWEB-0176             
1 48210U 21031A   24213.12938800  .00000218  00000+0  55341-3 0  9996
2 48210  87.8929  66.1700 0001726  82.8837 277.2489 13.14504076159478
ONEWEB-0184             
1 48211U 21031B   24213.10242068 -.00000097  00000+0 -29539-3 0  9996
2 48211  87.8923  66.1572 0000870  61.4203 298.7014 13.14504296158159
ONEWEB-0179             
1 48212U 21031C   24212.84394426 -.00000122  00000+0 -36436-3 0  9996
2 48212  87.8930  66.2135 0001753  87.2934 272.8396 13.14500952158164
ONEWEB-0180             
1 48213U 21031D   24213.10561567  .00000099  00000+0  23297-3 0  9991
2 48213  87.8925  66.1581 0001727  90.8414 269.2914 13.14501781158085
ONEWEB-0218             
1 48214U 21031E   24213.12780326  .00000235  00000+0  59846-3 0  9991
2 48214  87.8926  66.1554 0000656  85.4409 274.6796 13.14501674158248
ONEWEB-0209             
1 48215U 21031F   24212.96447159  .00000193  00000+0  48521-3 0  9998
2 48215  87.8930  66.2231 0001754  90.5945 269.5385 13.14501301158221
ONEWEB-0198             
1 48216U 21031G   24212.87249661 -.00000020  00000+0 -88919-4 0  9994
2 48216  87.8929  66.2457 0001390  90.3735 269.7554 13.14502056158320
ONEWEB-0189             
1 48217U 21031H   24212.96129397  .00000220  00000+0  55924-3 0  9997
2 48217  87.8927  66.2034 0001363  94.6246 265.5039 13.14504232158076
